[{"OBJECT_NAME":"TRANSPORTER-10 OBJECT AG","OBJECT_ID":"2024-043AG","EPOCH":"2026-03-09T22:12:45.387648","MEAN_MOTION":15.30759727,"ECCENTRICITY":0.00093005,"INCLINATION":97.5471,"RA_OF_ASC_NODE":205.7101,"ARG_OF_PERICENTER":226.5958,"MEAN_ANOMALY":133.4509,"EPHEMERIS_TYPE":0,"CLASSIFICATION_TYPE":"U","NORAD_CAT_ID":59128,"ELEMENT_SET_NO":999,"REV_AT_EPOCH":11192,"BSTAR":0.00032170115,"MEAN_MOTION_DOT":9.498e-5,"MEAN_MOTION_DDOT":0},{"OBJECT_NAME":"STARLINK-35999","OBJECT_ID":"2025-286AC","EPOCH":"2026-03-09T22:36:53.272800","MEAN_MOTION":15.30210068,"ECCENTRICITY":0.00018007,"INCLINATION":53.1613,"RA_OF_ASC_NODE":357.3916,"ARG_OF_PERICENTER":127.4777,"MEAN_ANOMALY":232.6388,"EPHEMERIS_TYPE":0,"CLASSIFICATION_TYPE":"U","NORAD_CAT_ID":66951,"ELEMENT_SET_NO":999,"REV_AT_EPOCH":1545,"BSTAR":0.0010571628,"MEAN_MOTION_DOT":0.00031092,"MEAN_MOTION_DDOT":0}]
